{"type": "FeatureCollection", "features": [ {"type": "Feature", "properties": {"norad_id": 58662, "name": "TIANMU-1 21", "group": "weather", "lat": -11.353002239242423, "lon": 116.11455168918135, "alt_km": 478.4779558867958, "timestamp": "2025-12-27T03:58:43.824896+00:00", "meta": {"OBJECT_NAME": "TIANMU-1 21", "OBJECT_ID": "2023-208C", "EPOCH": "2025-12-26T20:11:24.336096", "MEAN_MOTION": 15.3185723, "ECCENTRICITY": 0.0006548, "INCLINATION": 97.4371, "RA_OF_ASC_NODE": 114.2859, "ARG_OF_PERICENTER": 202.4685, "MEAN_ANOMALY": 157.6271, "EPHEMERIS_TYPE": 0, "CLASSIFICATION_TYPE": "U", "NORAD_CAT_ID": 58662, "ELEMENT_SET_NO": 999, "REV_AT_EPOCH": 11115, "BSTAR": 0.00039516, "MEAN_MOTION_DOT": 0.0001209, "MEAN_MOTION_DDOT": 0}, "tle": {"line1": "1 58662U 23208C   25360.84125389  .00012090  00000+0  39516-3 0  9996", "line2": "2 58662  97.4371 114.2859 0006548 202.4685 157.6271 15.31857230111153"}}, "geometry": {"type": "Point", "coordinates": [116.11455168918135, -11.353002239242423]}}, {"type": "Feature", "properties": {"norad_id": 58663, "name": "TIANMU-1 22", "group": "weather", "lat": 63.513022895315835, "lon": 97.0294087242678, "alt_km": 477.91496444221593, "timestamp": "2025-12-27T03:58:43.824905+00:00", "meta": {"OBJECT_NAME": "TIANMU-1 22", "OBJECT_ID": "2023-208D", "EPOCH": "2025-12-26T19:50:17.200608", "MEAN_MOTION": 15.27844569, "ECCENTRICITY": 0.0003075, "INCLINATION": 97.4379, "RA_OF_ASC_NODE": 111.8902, "ARG_OF_PERICENTER": 216.4119, "MEAN_ANOMALY": 143.6911, "EPHEMERIS_TYPE": 0, "CLASSIFICATION_TYPE": "U", "NORAD_CAT_ID": 58663, "ELEMENT_SET_NO": 999, "REV_AT_EPOCH": 11098, "BSTAR": 0.00034547, "MEAN_MOTION_DOT": 9.321e-05, "MEAN_MOTION_DDOT": 0}, "tle": {"line1": "1 58663U 23208D   25360.82658797  .00009321  00000+0  34547-3 0  9991", "line2": "2 58663  97.4379 111.8902 0003075 216.4119 143.6911 15.27844569110985"}}, "geometry": {"type": "Point", "coordinates": [97.0294087242678, 63.513022895315835]}}, {"type": "Feature", "properties": {"norad_id": 58700, "name": "TIANMU-1 15", "group": "weather", "lat": 26.83618390127525, "lon": 178.77846403083169, "alt_km": 494.95563121969826, "timestamp": "2025-12-27T03:58:43.824914+00:00", "meta": {"OBJECT_NAME": "TIANMU-1 15", "OBJECT_ID": "2024-004A", "EPOCH": "2025-12-26T19:59:03.565824", "MEAN_MOTION": 15.24596183, "ECCENTRICITY": 0.0006126, "INCLINATION": 97.4631, "RA_OF_ASC_NODE": 182.2494, "ARG_OF_PERICENTER": 230.2326, "MEAN_ANOMALY": 129.8373, "EPHEMERIS_TYPE": 0, "CLASSIFICATION_TYPE": "U", "NORAD_CAT_ID": 58700, "ELEMENT_SET_NO": 999, "REV_AT_EPOCH": 10949, "BSTAR": 0.00029935, "MEAN_MOTION_DOT": 7.312e-05, "MEAN_MOTION_DDOT": 0}, "tle": {"line1": "1 58700U 24004A   25360.83268016  .00007312  00000+0  29935-3 0  9993", "line2": "2 58700  97.4631 182.2494 0006126 230.2326 129.8373 15.24596183109495"}}, "geometry": {"type": "Point", "coordinates": [178.77846403083169, 26.83618390127525]}}, {"type": "Feature", "properties": {"norad_id": 58701, "name": "TIANMU-1 16", "group": "weather", "lat": 68.63912954106581, "lon": 21.52502515460794, "alt_km": 486.81732781063056, "timestamp": "2025-12-27T03:58:43.824924+00:00", "meta": {"OBJECT_NAME": "TIANMU-1 16", "OBJECT_ID": "2024-004B", "EPOCH": "2025-12-26T19:37:18.244992", "MEAN_MOTION": 15.2462356, "ECCENTRICITY": 0.0004471, "INCLINATION": 97.4571, "RA_OF_ASC_NODE": 181.6119, "ARG_OF_PERICENTER": 231.8931, "MEAN_ANOMALY": 128.1904, "EPHEMERIS_TYPE": 0, "CLASSIFICATION_TYPE": "U", "NORAD_CAT_ID": 58701, "ELEMENT_SET_NO": 999, "REV_AT_EPOCH": 10949, "BSTAR": 0.00030774, "MEAN_MOTION_DOT": 7.524e-05, "MEAN_MOTION_DDOT": 0}, "tle": {"line1": "1 58701U 24004B   25360.81757228  .00007524  00000+0  30774-3 0  9998", "line2": "2 58701  97.4571 181.6119 0004471 231.8931 128.1904 15.24623560109498"}}, "geometry": {"type": "Point", "coordinates": [21.52502515460794, 68.63912954106581]}}, {"type": "Feature", "properties": {"norad_id": 58702, "name": "TIANMU-1 17", "group": "weather", "lat": -16.78843635923407, "lon": 0.11016397749637184, "alt_km": 494.69256094007324, "timestamp": "2025-12-27T03:58:43.824933+00:00", "meta": {"OBJECT_NAME": "TIANMU-1 17", "OBJECT_ID": "2024-004C", "EPOCH": "2025-12-26T20:49:03.089568", "MEAN_MOTION": 15.24667441, "ECCENTRICITY": 0.0003642, "INCLINATION": 97.4605, "RA_OF_ASC_NODE": 182.0788, "ARG_OF_PERICENTER": 232.2216, "MEAN_ANOMALY": 127.8692, "EPHEMERIS_TYPE": 0, "CLASSIFICATION_TYPE": "U", "NORAD_CAT_ID": 58702, "ELEMENT_SET_NO": 999, "REV_AT_EPOCH": 10949, "BSTAR": 0.00032773, "MEAN_MOTION_DOT": 8.028e-05, "MEAN_MOTION_DDOT": 0}, "tle": {"line1": "1 58702U 24004C   25360.86739687  .00008028  00000+0  32773-3 0  9994", "line2": "2 58702  97.4605 182.0788 0003642 232.2216 127.8692 15.24667441109490"}}, "geometry": {"type": "Point", "coordinates": [0.11016397749637184, -16.78843635923407]}}, {"type": "Feature", "properties": {"norad_id": 58703, "name": "TIANMU-1 18", "group": "weather", "lat": -70.96679562072976, "lon": -155.09510257968537, "alt_km": 498.09684985032436, "timestamp": "2025-12-27T03:58:43.824942+00:00", "meta": {"OBJECT_NAME": "TIANMU-1 18", "OBJECT_ID": "2024-004D", "EPOCH": "2025-12-26T20:25:13.768320", "MEAN_MOTION": 15.24649535, "ECCENTRICITY": 0.0003049, "INCLINATION": 97.4622, "RA_OF_ASC_NODE": 182.2607, "ARG_OF_PERICENTER": 228.3383, "MEAN_ANOMALY": 131.7594, "EPHEMERIS_TYPE": 0, "CLASSIFICATION_TYPE": "U", "NORAD_CAT_ID": 58703, "ELEMENT_SET_NO": 999, "REV_AT_EPOCH": 10949, "BSTAR": 0.00031621, "MEAN_MOTION_DOT": 7.738e-05, "MEAN_MOTION_DDOT": 0}, "tle": {"line1": "1 58703U 24004D   25360.85085380  .00007738  00000+0  31621-3 0  9996", "line2": "2 58703  97.4622 182.2607 0003049 228.3383 131.7594 15.24649535109493"}}, "geometry": {"type": "Point", "coordinates": [-155.09510257968537, -70.96679562072976]}}, {"type": "Feature", "properties": {"norad_id": 58990, "name": "INSAT-3DS", "group": "weather", "lat": 0.026936629554512516, "lon": -122.32847730382944, "alt_km": 35781.93036515759, "timestamp": "2025-12-27T03:58:43.824952+00:00", "meta": {"OBJECT_NAME": "INSAT-3DS", "OBJECT_ID": "2024-033A", "EPOCH": "2025-12-26T19:54:32.859936", "MEAN_MOTION": 1.00270815, "ECCENTRICITY": 0.0001355, "INCLINATION": 0.0638, "RA_OF_ASC_NODE": 98.7885, "ARG_OF_PERICENTER": 178.2413, "MEAN_ANOMALY": 199.2829, "EPHEMERIS_TYPE": 0, "CLASSIFICATION_TYPE": "U", "NORAD_CAT_ID": 58990, "ELEMENT_SET_NO": 999, "REV_AT_EPOCH": 4534, "BSTAR": 0, "MEAN_MOTION_DOT": -1.34e-06, "MEAN_MOTION_DDOT": 0}, "tle": {"line1": "1 58990U 24033A   25360.82954699 -.00000134  00000+0  00000+0 0  9998", "line2": "2 58990   0.0638  98.7885 0001355 178.2413 199.2829  1.00270815 45345"}}, "geometry": {"type": "Point", "coordinates": [-122.32847730382944, 0.026936629554512516]}}, {"type": "Feature", "properties": {"norad_id": 59051, "name": "METEOR-M2 4", "group": "weather", "lat": -25.753192676089956, "lon": 133.6243143464412, "alt_km": 824.2939724216285, "timestamp": "2025-12-27T03:58:43.824962+00:00", "meta": {"OBJECT_NAME": "METEOR-M2 4", "OBJECT_ID": "2024-039A", "EPOCH": "2025-12-26T20:15:35.995104", "MEAN_MOTION": 14.22403471, "ECCENTRICITY": 0.0006327, "INCLINATION": 98.6786, "RA_OF_ASC_NODE": 317.5332, "ARG_OF_PERICENTER": 315.6972, "MEAN_ANOMALY": 44.3699, "EPHEMERIS_TYPE": 0, "CLASSIFICATION_TYPE": "U", "NORAD_CAT_ID": 59051, "ELEMENT_SET_NO": 999, "REV_AT_EPOCH": 9476, "BSTAR": 4.3739e-05, "MEAN_MOTION_DOT": 5.4e-07, "MEAN_MOTION_DDOT": 0}, "tle": {"line1": "1 59051U 24039A   25360.84416661  .00000054  00000+0  43739-4 0  9998", "line2": "2 59051  98.6786 317.5332 0006327 315.6972  44.3699 14.22403471 94760"}}, "geometry": {"type": "Point", "coordinates": [133.6243143464412, -25.753192676089956]}}, {"type": "Feature", "properties": {"norad_id": 60133, "name": "GOES 19", "group": "weather", "lat": 0.012092109489805046, "lon": 80.38277724797457, "alt_km": 35789.90825890011, "timestamp": "2025-12-27T03:58:43.824972+00:00", "meta": {"OBJECT_NAME": "GOES 19", "OBJECT_ID": "2024-119A", "EPOCH": "2025-12-26T12:35:56.409216", "MEAN_MOTION": 1.00266665, "ECCENTRICITY": 9.47e-05, "INCLINATION": 0.0307, "RA_OF_ASC_NODE": 217.6802, "ARG_OF_PERICENTER": 97.1965, "MEAN_ANOMALY": 254.1873, "EPHEMERIS_TYPE": 0, "CLASSIFICATION_TYPE": "U", "NORAD_CAT_ID": 60133, "ELEMENT_SET_NO": 999, "REV_AT_EPOCH": 523, "BSTAR": 0, "MEAN_MOTION_DOT": -2.26e-06, "MEAN_MOTION_DDOT": 0}, "tle": {"line1": "1 60133U 24119A   25360.52495844 -.00000226  00000+0  00000+0 0  9996", "line2": "2 60133   0.0307 217.6802 0000947  97.1965 254.1873  1.00266665  5230"}}, "geometry": {"type": "Point", "coordinates": [80.38277724797457, 0.012092109489805046]}}, {"type": "Feature", "properties": {"norad_id": 65815, "name": "FENGYUN 3H", "group": "weather", "lat": -43.981750972398686, "lon": -51.09773474116811, "alt_km": 832.8659516771413, "timestamp": "2025-12-27T03:58:43.824982+00:00", "meta": {"OBJECT_NAME": "FENGYUN 3H", "OBJECT_ID": "2025-219A", "EPOCH": "2025-12-26T19:43:57.387072", "MEAN_MOTION": 14.19908474, "ECCENTRICITY": 8.73e-05, "INCLINATION": 98.6603, "RA_OF_ASC_NODE": 300.108, "ARG_OF_PERICENTER": 109.9253, "MEAN_ANOMALY": 250.2017, "EPHEMERIS_TYPE": 0, "CLASSIFICATION_TYPE": "U", "NORAD_CAT_ID": 65815, "ELEMENT_SET_NO": 999, "REV_AT_EPOCH": 1292, "BSTAR": 7.1101e-05, "MEAN_MOTION_DOT": 1.08e-06, "MEAN_MOTION_DDOT": 0}, "tle": {"line1": "1 65815U 25219A   25360.82219198  .00000108  00000+0  71101-4 0  9992", "line2": "2 65815  98.6603 300.1080 0000873 109.9253 250.2017 14.19908474 12926"}}, "geometry": {"type": "Point", "coordinates": [-51.09773474116811, -43.981750972398686]}}]}